[
    {
        "Altitude(m)": 706114.0004491943,
        "Argument of Periapsis(deg)": 0.0011390121186627068,
        "Eccentricity": 0.0,
        "Inclination(deg)": 45.0,
        "Latitude(deg)": 39.72087574099326,
        "Longitude(deg)": -55.77742419899857,
        "Mean Anomaly(deg)": -244.30117833525196,
        "RAAN(deg)": 279.99892480585413,
        "Satellite Name": "Constellation 1 1239",
        "Satellite Number": 1239,
        "Semi-Major Axis(m)": 7083131.272910544,
        "Time(s)": 19
    },
    {
        "Altitude(m)": 706108.8463863668,
        "Argument of Periapsis(deg)": 0.0011989601249081123,
        "Eccentricity": 0.0,
        "Inclination(deg)": 45.0,
        "Latitude(deg)": 39.69660866138858,
        "Longitude(deg)": -55.709302139746114,
        "Mean Anomaly(deg)": -244.24047719500197,
        "RAAN(deg)": 279.99886821668855,
        "Satellite Name": "Constellation 1 1239",
        "Satellite Number": 1239,
        "Semi-Major Axis(m)": 7083131.272910544,
        "Time(s)": 20
    },
    {
        "Altitude(m)": 706103.6848472903,
        "Argument of Periapsis(deg)": 0.001258908131153518,
        "Eccentricity": 0.0,
        "Inclination(deg)": 45.0,
        "Latitude(deg)": 39.67229659570785,
        "Longitude(deg)": -55.6412306622301,
        "Mean Anomaly(deg)": -244.17977605475212,
        "RAAN(deg)": 279.998811627523,
        "Satellite Name": "Constellation 1 1239",
        "Satellite Number": 1239,
        "Semi-Major Axis(m)": 7083131.272910544,
        "Time(s)": 21
    },
    {
        "Altitude(m)": 706098.515863392,
        "Argument of Periapsis(deg)": 0.0013188561373989236,
        "Eccentricity": 0.0,
        "Inclination(deg)": 45.0,
        "Latitude(deg)": 39.64793961345876,
        "Longitude(deg)": -55.573209948802116,
        "Mean Anomaly(deg)": -244.11907491450222,
        "RAAN(deg)": 279.99875503835744,
        "Satellite Name": "Constellation 1 1239",
        "Satellite Number": 1239,
        "Semi-Major Axis(m)": 7083131.272910544,
        "Time(s)": 22
    },
    {
        "Altitude(m)": 706093.3394661385,
        "Argument of Periapsis(deg)": 0.0013788041436443293,
        "Eccentricity": 0.0,
        "Inclination(deg)": 45.0,
        "Latitude(deg)": 39.62353778414867,
        "Longitude(deg)": -55.50523967708787,
        "Mean Anomaly(deg)": -244.05837377425235,
        "RAAN(deg)": 279.9986984491919,
        "Satellite Name": "Constellation 1 1239",
        "Satellite Number": 1239,
        "Semi-Major Axis(m)": 7083131.272910544,
        "Time(s)": 23
    },
    {
        "Altitude(m)": 706088.1556870596,
        "Argument of Periapsis(deg)": 0.001438752149889735,
        "Eccentricity": 0.0,
        "Inclination(deg)": 45.0,
        "Latitude(deg)": 39.599091177283164,
        "Longitude(deg)": -55.43732002856952,
        "Mean Anomaly(deg)": -243.9976726340024,
        "RAAN(deg)": 279.9986418600263,
        "Satellite Name": "Constellation 1 1239",
        "Satellite Number": 1239,
        "Semi-Major Axis(m)": 7083131.272910544,
        "Time(s)": 24
    },
    {
        "Altitude(m)": 706082.9645577312,
        "Argument of Periapsis(deg)": 0.0014987001561351404,
        "Eccentricity": 0.0,
        "Inclination(deg)": 45.0,
        "Latitude(deg)": 39.57459986236594,
        "Longitude(deg)": -55.369451016199235,
        "Mean Anomaly(deg)": -243.9369714937525,
        "RAAN(deg)": 279.9985852708607,
        "Satellite Name": "Constellation 1 1239",
        "Satellite Number": 1239,
        "Semi-Major Axis(m)": 7083131.272910544,
        "Time(s)": 25
    },
    {
        "Altitude(m)": 706077.7661097789,
        "Argument of Periapsis(deg)": 0.001558648162380546,
        "Eccentricity": 0.0,
        "Inclination(deg)": 45.0,
        "Latitude(deg)": 39.55006390889813,
        "Longitude(deg)": -55.30163265249787,
        "Mean Anomaly(deg)": -243.87627035350263,
        "RAAN(deg)": 279.9985286816952,
        "Satellite Name": "Constellation 1 1239",
        "Satellite Number": 1239,
        "Semi-Major Axis(m)": 7083131.272910544,
        "Time(s)": 26
    },
    {
        "Altitude(m)": 706072.5603748831,
        "Argument of Periapsis(deg)": 0.0016185961686259519,
        "Eccentricity": 0.0,
        "Inclination(deg)": 45.0,
        "Latitude(deg)": 39.52548338637765,
        "Longitude(deg)": -55.233864949556065,
        "Mean Anomaly(deg)": -243.81556921325273,
        "RAAN(deg)": 279.9984720925296,
        "Satellite Name": "Constellation 1 1239",
        "Satellite Number": 1239,
        "Semi-Major Axis(m)": 7083131.272910544,
        "Time(s)": 27
    },
    {
        "Altitude(m)": 706067.347384778,
        "Argument of Periapsis(deg)": 0.0016785441748713573,
        "Eccentricity": 0.0,
        "Inclination(deg)": 45.0,
        "Latitude(deg)": 39.50085836429879,
        "Longitude(deg)": -55.16614791903612,
        "Mean Anomaly(deg)": -243.75486807300285,
        "RAAN(deg)": 279.9984155033641,
        "Satellite Name": "Constellation 1 1239",
        "Satellite Number": 1239,
        "Semi-Major Axis(m)": 7083131.272910544,
        "Time(s)": 28
    },
    {
        "Altitude(m)": 706062.127171237,
        "Argument of Periapsis(deg)": 0.001738492181116763,
        "Eccentricity": 0.0,
        "Inclination(deg)": 45.0,
        "Latitude(deg)": 39.47618891215141,
        "Longitude(deg)": -55.09848157217276,
        "Mean Anomaly(deg)": -243.69416693275292,
        "RAAN(deg)": 279.9983589141985,
        "Satellite Name": "Constellation 1 1239",
        "Satellite Number": 1239,
        "Semi-Major Axis(m)": 7083131.272910544,
        "Time(s)": 29
    },
    {
        "Altitude(m)": 706056.8997660989,
        "Argument of Periapsis(deg)": 0.0017984401873621684,
        "Eccentricity": 0.0,
        "Inclination(deg)": 45.0,
        "Latitude(deg)": 39.45147509942039,
        "Longitude(deg)": -55.03086608787182,
        "Mean Anomaly(deg)": -243.63346579250302,
        "RAAN(deg)": 279.99830232503285,
        "Satellite Name": "Constellation 1 1239",
        "Satellite Number": 1239,
        "Semi-Major Axis(m)": 7083131.272910544,
        "Time(s)": 30
    },
    {
        "Altitude(m)": 706051.6652012394,
        "Argument of Periapsis(deg)": 0.0018583881936075745,
        "Eccentricity": 0.0,
        "Inclination(deg)": 45.0,
        "Latitude(deg)": 39.42671699558551,
        "Longitude(deg)": -54.96330114032404,
        "Mean Anomaly(deg)": -243.57276465225308,
        "RAAN(deg)": 279.99824573586733,
        "Satellite Name": "Constellation 1 1239",
        "Satellite Number": 1239,
        "Semi-Major Axis(m)": 7083131.272910544,
        "Time(s)": 31
    },
    {
        "Altitude(m)": 706046.4235086006,
        "Argument of Periapsis(deg)": 0.0019183361998529795,
        "Eccentricity": 0.0,
        "Inclination(deg)": 45.0,
        "Latitude(deg)": 39.401914670120114,
        "Longitude(deg)": -54.89578690758759,
        "Mean Anomaly(deg)": -243.51206351200318,
        "RAAN(deg)": 279.99818914670175,
        "Satellite Name": "Constellation 1 1239",
        "Satellite Number": 1239,
        "Semi-Major Axis(m)": 7083131.272910544,
        "Time(s)": 32
    },
    {
        "Altitude(m)": 706041.1747201572,
        "Argument of Periapsis(deg)": 0.0019782842060983856,
        "Eccentricity": 0.0,
        "Inclination(deg)": 45.0,
        "Latitude(deg)": 39.37706819249104,
        "Longitude(deg)": -54.82832339920216,
        "Mean Anomaly(deg)": -243.45136237175333,
        "RAAN(deg)": 279.9981325575362,
        "Satellite Name": "Constellation 1 1239",
        "Satellite Number": 1239,
        "Semi-Major Axis(m)": 7083131.272910544,
        "Time(s)": 33
    },
    {
        "Altitude(m)": 706035.9188679465,
        "Argument of Periapsis(deg)": 0.0020382322123437906,
        "Eccentricity": 0.0,
        "Inclination(deg)": 45.0,
        "Latitude(deg)": 39.35217763215793,
        "Longitude(deg)": -54.760910624287206,
        "Mean Anomaly(deg)": -243.39066123150346,
        "RAAN(deg)": 279.99807596837064,
        "Satellite Name": "Constellation 1 1239",
        "Satellite Number": 1239,
        "Semi-Major Axis(m)": 7083131.272910544,
        "Time(s)": 34
    },
    {
        "Altitude(m)": 706030.6559840535,
        "Argument of Periapsis(deg)": 0.002098180218589197,
        "Eccentricity": 0.0,
        "Inclination(deg)": 45.0,
        "Latitude(deg)": 39.32724305857267,
        "Longitude(deg)": -54.693548591543276,
        "Mean Anomaly(deg)": -243.32996009125353,
        "RAAN(deg)": 279.998019379205,
        "Satellite Name": "Constellation 1 1239",
        "Satellite Number": 1239,
        "Semi-Major Axis(m)": 7083131.272910544,
        "Time(s)": 35
    },
    {
        "Altitude(m)": 706025.3861006099,
        "Argument of Periapsis(deg)": 0.002158128224834602,
        "Eccentricity": 0.0,
        "Inclination(deg)": 45.0,
        "Latitude(deg)": 39.30226454117887,
        "Longitude(deg)": -54.62623730925341,
        "Mean Anomaly(deg)": -243.26925895100365,
        "RAAN(deg)": 279.9979627900395,
        "Satellite Name": "Constellation 1 1239",
        "Satellite Number": 1239,
        "Semi-Major Axis(m)": 7083131.272910544,
        "Time(s)": 36
    },
    {
        "Altitude(m)": 706020.1092497992,
        "Argument of Periapsis(deg)": 0.002218076231080008,
        "Eccentricity": 0.0,
        "Inclination(deg)": 45.0,
        "Latitude(deg)": 39.27724214941107,
        "Longitude(deg)": -54.55897695338146,
        "Mean Anomaly(deg)": -243.20855781075372,
        "RAAN(deg)": 279.9979062008739,
        "Satellite Name": "Constellation 1 1239",
        "Satellite Number": 1239,
        "Semi-Major Axis(m)": 7083131.272910544,
        "Time(s)": 37
    }
]